NORAD_CAT_ID,OBJECT_NAME,OBJECT_TYPE,EPOCH,MEAN_MOTION,ECCENTRICITY,INCLINATION,RA_OF_ASC_NODE,ARG_OF_PERICENTER,MEAN_ANOMALY,BSTAR,MEAN_MOTION_DOT,MEAN_MOTION_DDOT,TLE_LINE0,TLE_LINE1,TLE_LINE2,SEMIMAJOR_AXIS,PERIOD,APOGEE,PERIGEE,DECAYED
52124.0,STARLINK-3684,PAYLOAD,2023-11-23 01:01:32,15.0884283,0.000183,53.2176,239.4623,103.6702,256.4494,0.00023272,3.418e-05,0.0,0 STARLINK-3684,1 52124U 22029AN  23327.04273989  .00003418  00000-0  23272-3 0  9993,2 52124  53.2176 239.4623 0001830 103.6702 256.4494 15.08842830 94332,6917.872,95.437,541.003,538.471,0.0
52124.0,STARLINK-3684,PAYLOAD,2023-11-23 18:30:47,15.08827631,0.0001686,53.2177,236.1905,116.6873,243.4292,0.00013489,1.859e-05,0.0,0 STARLINK-3684,1 52124U 22029AN  23327.77138681  .00001859  00000-0  13489-3 0  9998,2 52124  53.2177 236.1905 0001686 116.6873 243.4292 15.08827631 94448,6917.918,95.438,540.95,538.617,0.0
52124.0,STARLINK-3684,PAYLOAD,2023-11-23 21:41:34,15.08825929,0.0001508,53.2178,235.5955,111.1866,248.9287,0.00020538,2.981e-05,0.0,0 STARLINK-3684,1 52124U 22029AN  23327.90386947  .00002981  00000-0  20538-3 0  9993,2 52124  53.2178 235.5955 0001508 111.1866 248.9287 15.08825929 94466,6917.923,95.438,540.832,538.745,0.0
52124.0,STARLINK-3684,PAYLOAD,2023-11-24 04:03:07,15.08828042,0.0001688,53.2173,234.4055,116.9945,243.122,0.00038227,5.799e-05,0.0,0 STARLINK-3684,1 52124U 22029AN  23328.16883217  .00005799  00000-0  38227-3 0  9998,2 52124  53.2173 234.4055 0001688 116.9945 243.1220 15.08828042 94508,6917.917,95.438,540.95,538.614,0.0
52124.0,STARLINK-3684,PAYLOAD,2023-11-24 21:32:21,15.0884074,0.0001965,53.2155,231.1381,125.9677,234.1498,0.00016896,2.402e-05,0.0,0 STARLINK-3684,1 52124U 22029AN  23328.89747294  .00002402  00000-0  16896-3 0  9998,2 52124  53.2155 231.1381 0001965 125.9677 234.1498 15.08840740 94612,6917.878,95.438,541.102,538.384,0.0
52124.0,STARLINK-3684,PAYLOAD,2023-11-24 23:07:44,15.08840963,0.0001883,53.217,230.8416,118.949,241.1691,0.00030167,4.516e-05,0.0,0 STARLINK-3684,1 52124U 22029AN  23328.96371378  .00004516  00000-0  30167-3 0  9997,2 52124  53.2170 230.8416 0001883 118.9490 241.1691 15.08840963 94629,6917.877,95.437,541.045,538.44,0.0
52124.0,STARLINK-3684,PAYLOAD,2023-11-25 21:23:08,15.08871805,0.0001304,53.2161,226.6806,90.5719,269.5423,0.00087841,0.00013732,0.0,0 STARLINK-3684,1 52124U 22029AN  23329.89106484  .00013732  00000-0  87841-3 0  9995,2 52124  53.2161 226.6806 0001304  90.5719 269.5423 15.08871805 94763,6917.783,95.436,540.55,538.746,0.0
52124.0,STARLINK-3684,PAYLOAD,2023-11-25 22:58:30,15.08881972,0.0001336,53.216,226.3834,86.7301,273.3844,0.0012556,0.00019774,0.0,0 STARLINK-3684,1 52124U 22029AN  23329.95730314  .00019774  00000-0  12556-2 0  9999,2 52124  53.2160 226.3834 0001336  86.7301 273.3844 15.08881972 94776,6917.752,95.435,540.541,538.693,0.0
52124.0,STARLINK-3684,PAYLOAD,2023-11-26 16:27:45,15.08853461,0.0001576,53.2156,223.1123,82.751,277.3661,0.00017158,2.445e-05,0.0,0 STARLINK-3684,1 52124U 22029AN  23330.68594312  .00002445  00000-0  17158-3 0  9998,2 52124  53.2156 223.1123 0001576  82.7510 277.3661 15.08853461 94886,6917.839,95.437,540.794,538.614,0.0
52124.0,STARLINK-3684,PAYLOAD,2023-11-26 21:13:55,15.088351,0.0002146,53.2161,222.209,130.9904,229.1274,0.00025087,3.706e-05,0.0,0 STARLINK-3684,1 52124U 22029AN  23330.88466464  .00003706  00000-0  25087-3 0  9997,2 52124  53.2161 222.2090 0002146 130.9904 229.1274 15.08835100 94911,6917.895,95.438,541.245,538.276,0.0
52124.0,STARLINK-3684,PAYLOAD,2023-11-27 00:24:41,15.08820138,0.0001473,53.2162,221.6239,66.8146,293.3001,-0.00046843,-7.731e-05,0.0,0 STARLINK-3684,1 52124U 22029AN  23331.01714991 -.00007731  00000-0 -46843-3 0  9991,2 52124  53.2162 221.6239 0001473  66.8146 293.3001 15.08820138 94935,6917.941,95.439,540.825,538.787,0.0
52124.0,STARLINK-3684,PAYLOAD,2023-11-27 16:18:33,15.08825198,0.0001375,53.2157,218.649,78.9635,281.1512,0.00041451,6.313e-05,0.0,0 STARLINK-3684,1 52124U 22029AN  23331.67955853  .00006313  00000-0  41451-3 0  9990,2 52124  53.2157 218.6490 0001375  78.9635 281.1512 15.08825198 95037,6917.926,95.438,540.742,538.839,0.0
52124.0,STARLINK-3684,PAYLOAD,2023-11-27 21:04:43,15.08841143,0.0001353,53.2155,217.7584,74.8987,285.2155,0.00079355,0.00012364,0.0,0 STARLINK-3684,1 52124U 22029AN  23331.87827630  .00012364  00000-0  79355-3 0  9990,2 52124  53.2155 217.7584 0001353  74.8987 285.2155 15.08841143 95069,6917.877,95.437,540.678,538.806,0.0
52124.0,STARLINK-3684,PAYLOAD,2023-11-28 00:15:29,15.08853478,0.0001423,53.2152,217.1639,73.9466,286.1683,0.0013358,0.00021043,0.0,0 STARLINK-3684,1 52124U 22029AN  23332.01075601  .00021043  00000-0  13358-2 0  9994,2 52124  53.2152 217.1639 0001423  73.9466 286.1683 15.08853478 95083,6917.839,95.437,540.689,538.72,0.0
52124.0,STARLINK-3684,PAYLOAD,2023-11-28 16:09:20,15.08857964,0.0001382,53.2148,214.1913,86.2927,273.8223,0.0010271,0.00016104,0.0,0 STARLINK-3684,1 52124U 22029AN  23332.67315371  .00016104  00000-0  10271-2 0  9990,2 52124  53.2148 214.1913 0001382  86.2927 273.8223 15.08857964 95181,6917.825,95.436,540.647,538.734,0.0
52124.0,STARLINK-3684,PAYLOAD,2023-11-28 22:30:52,15.08860064,0.0001422,53.2148,213.0013,78.9036,281.2116,0.00077151,0.00012019,0.0,0 STARLINK-3684,1 52124U 22029AN  23332.93811192  .00012019  00000-0  77151-3 0  9993,2 52124  53.2148 213.0013 0001422  78.9036 281.2116 15.08860064 95228,6917.819,95.436,540.668,538.7,0.0
52124.0,STARLINK-3684,PAYLOAD,2023-11-29 01:41:38,15.08866989,0.0001392,53.2147,212.4061,83.591,276.5241,0.00099766,0.00015637,0.0,0 STARLINK-3684,1 52124U 22029AN  23333.07058920  .00015637  00000-0  99766-3 0  9996,2 52124  53.2147 212.4061 0001392  83.5910 276.5241 15.08866989 95242,6917.798,95.436,540.626,538.7,0.0
52124.0,STARLINK-3684,PAYLOAD,2023-11-29 19:10:53,15.08857421,0.00013,53.2149,209.1355,75.1267,284.9869,0.0010106,0.0001584,0.0,0 STARLINK-3684,1 52124U 22029AN  23333.79923072  .00015840  00000-0  10106-2 0  9990,2 52124  53.2149 209.1355 0001300  75.1267 284.9869 15.08857421 95356,6917.827,95.436,540.591,538.793,0.0
52124.0,STARLINK-3684,PAYLOAD,2023-11-29 22:21:39,15.0886232,0.0001202,53.2149,208.5411,93.245,266.868,0.001797,0.00028445,0.0,0 STARLINK-3684,1 52124U 22029AN  23333.93170885  .00028445  00000-0  17970-2 0  9993,2 52124  53.2149 208.5411 0001202  93.2450 266.8680 15.08862320 95374,6917.812,95.436,540.509,538.846,0.0
52124.0,STARLINK-3684,PAYLOAD,2023-12-01 01:23:12,15.08852668,0.0001352,53.2156,203.4844,109.561,250.5528,0.00094145,0.00014732,0.0,0 STARLINK-3684,1 52124U 22029AN  23335.05778877  .00014732  00000-0  94145-3 0  9997,2 52124  53.2156 203.4844 0001352 109.5610 250.5528 15.08852668 95545,6917.842,95.437,540.642,538.771,0.0
52124.0,STARLINK-3684,PAYLOAD,2023-12-01 18:52:27,15.08847359,0.000158,53.2164,200.2084,103.8421,256.2747,0.00050874,7.819e-05,0.0,0 STARLINK-3684,1 52124U 22029AN  23335.78642970  .00007819  00000-0  50874-3 0  9990,2 52124  53.2164 200.2084 0001580 103.8421 256.2747 15.08847359 95654,6917.858,95.437,540.816,538.63,0.0
52124.0,STARLINK-3684,PAYLOAD,2023-12-01 22:03:13,15.08848547,0.0001446,53.2157,199.6139,96.739,263.3766,0.00053916,8.305e-05,0.0,0 STARLINK-3684,1 52124U 22029AN  23335.91890810  .00008305  00000-0  53916-3 0  9994,2 52124  53.2157 199.6139 0001446  96.7390 263.3766 15.08848547 95676,6917.854,95.437,540.72,538.719,0.0
52124.0,STARLINK-3684,PAYLOAD,2023-12-02 01:13:59,15.08856818,0.0001555,53.216,199.0195,97.239,262.8779,0.0010893,0.00017099,0.0,0 STARLINK-3684,1 52124U 22029AN  23336.05138777  .00017099  00000-0  10893-2 0  9993,2 52124  53.2160 199.0195 0001555  97.2390 262.8779 15.08856818 95693,6917.829,95.436,540.77,538.618,0.0
52124.0,STARLINK-3684,PAYLOAD,2023-12-02 20:18:37,15.08843915,0.0001402,53.216,195.4502,103.7879,256.3269,0.00010511,1.385e-05,0.0,0 STARLINK-3684,1 52124U 22029AN  23336.84626658  .00001385  00000-0  10511-3 0  9999,2 52124  53.2160 195.4502 0001402 103.7879 256.3269 15.08843915 95811,6917.868,95.437,540.703,538.764,0.0
52124.0,STARLINK-3684,PAYLOAD,2023-12-02 21:54:00,15.08844801,0.0001276,53.2156,195.151,99.0296,261.0841,0.00011085,1.477e-05,0.0,0 STARLINK-3684,1 52124U 22029AN  23336.91250563  .00001477  00000-0  11085-3 0  9994,2 52124  53.2156 195.1510 0001276  99.0296 261.0841 15.08844801 95826,6917.866,95.437,540.613,538.848,0.0
52124.0,STARLINK-3684,PAYLOAD,2023-12-03 13:47:52,15.08830853,0.0001677,53.2165,192.1861,99.2156,260.9026,-0.00015777,-2.797e-05,0.0,0 STARLINK-3684,1 52124U 22029AN  23337.57491202 -.00002797  00000-0 -15777-3 0  9994,2 52124  53.2165 192.1861 0001677  99.2156 260.9026 15.08830853 95920,6917.908,95.438,540.933,538.613,0.0
52124.0,STARLINK-3684,PAYLOAD,2023-12-03 20:09:25,15.08827433,0.0001558,53.2161,190.9919,116.2923,243.8229,-0.00016622,-2.931e-05,0.0,0 STARLINK-3684,1 52124U 22029AN  23337.83987696 -.00002931  00000-0 -16622-3 0  9990,2 52124  53.2161 190.9919 0001558 116.2923 243.8229 15.08827433 95965,6917.919,95.438,540.862,538.706,0.0
52124.0,STARLINK-3684,PAYLOAD,2023-12-03 23:20:12,15.08821107,0.0001419,53.2156,190.3986,105.4457,254.6692,-0.00026157,-4.446e-05,0.0,0 STARLINK-3684,1 52124U 22029AN  23337.97236127 -.00004446  00000-0 -26157-3 0  9998,2 52124  53.2156 190.3986 0001419 105.4457 254.6692 15.08821107 95983,6917.938,95.439,540.785,538.821,0.0
52124.0,STARLINK-3684,PAYLOAD,2023-12-06 00:37:10,15.08840933,0.0001307,53.2152,181.1816,101.6039,258.51,0.00035396,5.35e-05,0.0,0 STARLINK-3684,1 52124U 22029AN  23340.02581273  .00005350  00000-0  35396-3 0  9991,2 52124  53.2152 181.1816 0001307 101.6039 258.5100 15.08840933 96299,6917.878,95.437,540.647,538.838,0.0
52124.0,STARLINK-3684,PAYLOAD,2023-12-06 13:20:14,15.08852943,0.0001358,53.215,178.8033,94.8523,265.2625,0.00018047,2.586e-05,0.0,0 STARLINK-3684,1 52124U 22029AN  23340.55572865  .00002586  00000-0  18047-3 0  9998,2 52124  53.2150 178.8033 0001358  94.8523 265.2625 15.08852943 96378,6917.841,95.437,540.645,538.766,0.0
